CCSDS_OMM_VERS = 2.0
CREATION_DATE  = 
ORIGINATOR     = 

OBJECT_NAME    = STARLINK-36440
OBJECT_ID      = 2026-008C
CENTER_NAME    = EARTH
REF_FRAME      = TEME
TIME_SYSTEM    = UTC
MEAN_ELEMENT_THEORY = SGP/SGP4

EPOCH          = 2026-02-10T06:00:02.000160
MEAN_MOTION    = 15.50563355
ECCENTRICITY   = .00008805
INCLINATION    = 43.0006
RA_OF_ASC_NODE = 0.7832
ARG_OF_PERICENTER = 276.8900
MEAN_ANOMALY   = 269.9807

EPHEMERIS_TYPE = 0
CLASSIFICATION_TYPE = U
NORAD_CAT_ID   = 67447
ELEMENT_SET_NO = 999
REV_AT_EPOCH   = 538
BSTAR          = -.28001278E-3
MEAN_MOTION_DOT = -.16723E-3
MEAN_MOTION_DDOT = 0

CCSDS_OMM_VERS = 2.0
CREATION_DATE  = 
ORIGINATOR     = 

OBJECT_NAME    = STARLINK-36423
OBJECT_ID      = 2026-008D
CENTER_NAME    = EARTH
REF_FRAME      = TEME
TIME_SYSTEM    = UTC
MEAN_ELEMENT_THEORY = SGP/SGP4

EPOCH          = 2026-02-10T00:05:54.424896
MEAN_MOTION    = 15.50626988
ECCENTRICITY   = .00009945
INCLINATION    = 43.0001
RA_OF_ASC_NODE = 2.8396
ARG_OF_PERICENTER = 232.8859
MEAN_ANOMALY   = 127.1911

EPHEMERIS_TYPE = 0
CLASSIFICATION_TYPE = U
NORAD_CAT_ID   = 67448
ELEMENT_SET_NO = 999
REV_AT_EPOCH   = 532
BSTAR          = .1228188E-2
MEAN_MOTION_DOT = .72504E-3
MEAN_MOTION_DDOT = 0

CCSDS_OMM_VERS = 2.0
CREATION_DATE  = 
ORIGINATOR     = 

OBJECT_NAME    = STARLINK-36519
OBJECT_ID      = 2026-008E
CENTER_NAME    = EARTH
REF_FRAME      = TEME
TIME_SYSTEM    = UTC
MEAN_ELEMENT_THEORY = SGP/SGP4

EPOCH          = 2026-02-10T06:00:02.000160
MEAN_MOTION    = 15.50759081
ECCENTRICITY   = .000114
INCLINATION    = 43.0003
RA_OF_ASC_NODE = 0.9055
ARG_OF_PERICENTER = 262.1863
MEAN_ANOMALY   = 234.7199

EPHEMERIS_TYPE = 0
CLASSIFICATION_TYPE = U
NORAD_CAT_ID   = 67449
ELEMENT_SET_NO = 999
REV_AT_EPOCH   = 538
BSTAR          = -.95250149E-2
MEAN_MOTION_DOT = -.52646E-2
MEAN_MOTION_DDOT = 0

CCSDS_OMM_VERS = 2.0
CREATION_DATE  = 
ORIGINATOR     = 

OBJECT_NAME    = STARLINK-36525
OBJECT_ID      = 2026-008F
CENTER_NAME    = EARTH
REF_FRAME      = TEME
TIME_SYSTEM    = UTC
MEAN_ELEMENT_THEORY = SGP/SGP4

EPOCH          = 2026-02-10T06:00:02.000160
MEAN_MOTION    = 15.50575258
ECCENTRICITY   = .00013377
INCLINATION    = 43.0003
RA_OF_ASC_NODE = 1.2755
ARG_OF_PERICENTER = 277.5583
MEAN_ANOMALY   = 69.3523

EPHEMERIS_TYPE = 0
CLASSIFICATION_TYPE = U
NORAD_CAT_ID   = 67450
ELEMENT_SET_NO = 999
REV_AT_EPOCH   = 538
BSTAR          = -.43927745E-3
MEAN_MOTION_DOT = -.26022E-3
MEAN_MOTION_DDOT = 0

CCSDS_OMM_VERS = 2.0
CREATION_DATE  = 
ORIGINATOR     = 

OBJECT_NAME    = STARLINK-36511
OBJECT_ID      = 2026-008G
CENTER_NAME    = EARTH
REF_FRAME      = TEME
TIME_SYSTEM    = UTC
MEAN_ELEMENT_THEORY = SGP/SGP4

EPOCH          = 2026-02-10T00:03:06.194592
MEAN_MOTION    = 15.50587388
ECCENTRICITY   = .00011706
INCLINATION    = 42.9999
RA_OF_ASC_NODE = 2.8273
ARG_OF_PERICENTER = 266.1069
MEAN_ANOMALY   = 93.9657

EPHEMERIS_TYPE = 0
CLASSIFICATION_TYPE = U
NORAD_CAT_ID   = 67451
ELEMENT_SET_NO = 999
REV_AT_EPOCH   = 532
BSTAR          = .15481035E-2
MEAN_MOTION_DOT = .91574E-3
MEAN_MOTION_DDOT = 0

CCSDS_OMM_VERS = 2.0
CREATION_DATE  = 
ORIGINATOR     = 

OBJECT_NAME    = STARLINK-36524
OBJECT_ID      = 2026-008H
CENTER_NAME    = EARTH
REF_FRAME      = TEME
TIME_SYSTEM    = UTC
MEAN_ELEMENT_THEORY = SGP/SGP4

EPOCH          = 2026-02-10T06:00:02.000160
MEAN_MOTION    = 15.50581456
ECCENTRICITY   = .00013367
INCLINATION    = 43.0003
RA_OF_ASC_NODE = 1.2263
ARG_OF_PERICENTER = 270.2948
MEAN_ANOMALY   = 96.2772

EPHEMERIS_TYPE = 0
CLASSIFICATION_TYPE = U
NORAD_CAT_ID   = 67452
ELEMENT_SET_NO = 999
REV_AT_EPOCH   = 538
BSTAR          = -.97745438E-4
MEAN_MOTION_DOT = -.6072E-4
MEAN_MOTION_DDOT = 0

CCSDS_OMM_VERS = 2.0
CREATION_DATE  = 
ORIGINATOR     = 

OBJECT_NAME    = STARLINK-36518
OBJECT_ID      = 2026-008J
CENTER_NAME    = EARTH
REF_FRAME      = TEME
TIME_SYSTEM    = UTC
MEAN_ELEMENT_THEORY = SGP/SGP4

EPOCH          = 2026-02-10T06:00:02.000160
MEAN_MOTION    = 15.46455766
ECCENTRICITY   = .00006321
INCLINATION    = 42.9999
RA_OF_ASC_NODE = 0.7402
ARG_OF_PERICENTER = 295.5519
MEAN_ANOMALY   = 262.6566

EPHEMERIS_TYPE = 0
CLASSIFICATION_TYPE = U
NORAD_CAT_ID   = 67453
ELEMENT_SET_NO = 999
REV_AT_EPOCH   = 540
BSTAR          = -.44554114E-1
MEAN_MOTION_DOT = -.2015473E-1
MEAN_MOTION_DDOT = 0

CCSDS_OMM_VERS = 2.0
CREATION_DATE  = 
ORIGINATOR     = 

OBJECT_NAME    = STARLINK-36517
OBJECT_ID      = 2026-008K
CENTER_NAME    = EARTH
REF_FRAME      = TEME
TIME_SYSTEM    = UTC
MEAN_ELEMENT_THEORY = SGP/SGP4

EPOCH          = 2026-02-10T06:20:57.695424
MEAN_MOTION    = 15.50596615
ECCENTRICITY   = .00013666
INCLINATION    = 42.9995
RA_OF_ASC_NODE = 1.3569
ARG_OF_PERICENTER = 251.4058
MEAN_ANOMALY   = 108.6654

EPHEMERIS_TYPE = 0
CLASSIFICATION_TYPE = U
NORAD_CAT_ID   = 67454
ELEMENT_SET_NO = 999
REV_AT_EPOCH   = 536
BSTAR          = .16262648E-2
MEAN_MOTION_DOT = .96305E-3
MEAN_MOTION_DDOT = 0

CCSDS_OMM_VERS = 2.0
CREATION_DATE  = 
ORIGINATOR     = 

OBJECT_NAME    = STARLINK-36516
OBJECT_ID      = 2026-008L
CENTER_NAME    = EARTH
REF_FRAME      = TEME
TIME_SYSTEM    = UTC
MEAN_ELEMENT_THEORY = SGP/SGP4

EPOCH          = 2026-02-10T06:06:33.761088
MEAN_MOTION    = 15.50586425
ECCENTRICITY   = .00014492
INCLINATION    = 42.9996
RA_OF_ASC_NODE = 1.2765
ARG_OF_PERICENTER = 267.3325
MEAN_ANOMALY   = 92.7369

EPHEMERIS_TYPE = 0
CLASSIFICATION_TYPE = U
NORAD_CAT_ID   = 67455
ELEMENT_SET_NO = 999
REV_AT_EPOCH   = 536
BSTAR          = .14982441E-2
MEAN_MOTION_DOT = .88577E-3
MEAN_MOTION_DDOT = 0

CCSDS_OMM_VERS = 2.0
CREATION_DATE  = 
ORIGINATOR     = 

OBJECT_NAME    = STARLINK-36493
OBJECT_ID      = 2026-008M
CENTER_NAME    = EARTH
REF_FRAME      = TEME
TIME_SYSTEM    = UTC
MEAN_ELEMENT_THEORY = SGP/SGP4

EPOCH          = 2026-02-10T06:00:02.000160
MEAN_MOTION    = 15.50496757
ECCENTRICITY   = .00011817
INCLINATION    = 43.0003
RA_OF_ASC_NODE = 1.2731
ARG_OF_PERICENTER = 274.4979
MEAN_ANOMALY   = 73.2577

EPHEMERIS_TYPE = 0
CLASSIFICATION_TYPE = U
NORAD_CAT_ID   = 67456
ELEMENT_SET_NO = 999
REV_AT_EPOCH   = 538
BSTAR          = .16088183E-2
MEAN_MOTION_DOT = .94913E-3
MEAN_MOTION_DDOT = 0

CCSDS_OMM_VERS = 2.0
CREATION_DATE  = 
ORIGINATOR     = 

OBJECT_NAME    = STARLINK-36529
OBJECT_ID      = 2026-008N
CENTER_NAME    = EARTH
REF_FRAME      = TEME
TIME_SYSTEM    = UTC
MEAN_ELEMENT_THEORY = SGP/SGP4

EPOCH          = 2026-02-10T06:00:02.000160
MEAN_MOTION    = 15.50558289
ECCENTRICITY   = .00010752
INCLINATION    = 43.0001
RA_OF_ASC_NODE = 1.0150
ARG_OF_PERICENTER = 264.4143
MEAN_ANOMALY   = 187.9139

EPHEMERIS_TYPE = 0
CLASSIFICATION_TYPE = U
NORAD_CAT_ID   = 67457
ELEMENT_SET_NO = 999
REV_AT_EPOCH   = 538
BSTAR          = .70901334E-3
MEAN_MOTION_DOT = .41442E-3
MEAN_MOTION_DDOT = 0

CCSDS_OMM_VERS = 2.0
CREATION_DATE  = 
ORIGINATOR     = 

OBJECT_NAME    = STARLINK-36528
OBJECT_ID      = 2026-008P
CENTER_NAME    = EARTH
REF_FRAME      = TEME
TIME_SYSTEM    = UTC
MEAN_ELEMENT_THEORY = SGP/SGP4

EPOCH          = 2026-02-10T06:00:02.000160
MEAN_MOTION    = 15.50492825
ECCENTRICITY   = .00014155
INCLINATION    = 43.0004
RA_OF_ASC_NODE = 0.6903
ARG_OF_PERICENTER = 272.0032
MEAN_ANOMALY   = 312.3239

EPHEMERIS_TYPE = 0
CLASSIFICATION_TYPE = U
NORAD_CAT_ID   = 67458
ELEMENT_SET_NO = 999
REV_AT_EPOCH   = 540
BSTAR          = .22602904E-2
MEAN_MOTION_DOT = .134142E-2
MEAN_MOTION_DDOT = 0

