STARLINK-36440          
1 67447U 26008C   26041.25002315 -.00016723  00000+0 -28001-3 0  9999
2 67447  43.0006   0.7832 0000880 276.8900 269.9807 15.50563355  5386
STARLINK-36423          
1 67448U 26008D   26041.00410214  .00072504  00000+0  12282-2 0  9994
2 67448  43.0001   2.8396 0000994 232.8859 127.1911 15.50626988  5328
STARLINK-36519          
1 67449U 26008E   26041.25002315 -.00526460  00000+0 -95250-2 0  9994
2 67449  43.0003   0.9055 0001140 262.1863 234.7199 15.50759081  5387
STARLINK-36525          
1 67450U 26008F   26041.25002315 -.00026022  00000+0 -43928-3 0  9991
2 67450  43.0003   1.2755 0001337 277.5583  69.3523 15.50575258  5382
STARLINK-36511          
1 67451U 26008G   26041.00215503  .00091574  00000+0  15481-2 0  9994
2 67451  42.9999   2.8273 0001170 266.1069  93.9657 15.50587388  5327
STARLINK-36524          
1 67452U 26008H   26041.25002315 -.00006072  00000+0 -97745-4 0  9993
2 67452  43.0003   1.2263 0001336 270.2948  96.2772 15.50581456  5384
STARLINK-36518          
1 67453U 26008J   26041.25002315 -.02015473  00000+0 -44554-1 0  9998
2 67453  42.9999   0.7402 0000632 295.5519 262.6566 15.46455766  5400
STARLINK-36517          
1 67454U 26008K   26041.26455666  .00096305  00000+0  16263-2 0  9997
2 67454  42.9995   1.3569 0001366 251.4058 108.6654 15.50596615  5368
STARLINK-36516          
1 67455U 26008L   26041.25455742  .00088577  00000+0  14982-2 0  9990
2 67455  42.9996   1.2765 0001449 267.3325  92.7369 15.50586425  5366
STARLINK-36493          
1 67456U 26008M   26041.25002315  .00094913  00000+0  16088-2 0  9995
2 67456  43.0003   1.2731 0001181 274.4979  73.2577 15.50496757  5383
STARLINK-36529          
1 67457U 26008N   26041.25002315  .00041442  00000+0  70901-3 0  9990
2 67457  43.0001   1.0150 0001075 264.4143 187.9139 15.50558289  5385
STARLINK-36528          
1 67458U 26008P   26041.25002315  .00134142  00000+0  22603-2 0  9996
2 67458  43.0004   0.6903 0001415 272.0032 312.3239 15.50492825  5401
